IRIDIUM 150             
1 43257U 18030J   25181.79388161  .00000001  00000+0 -66059-5 0  9995
2 43257  86.3953  77.3763 0001951  77.4638 282.6776 14.34217490379799
IRIDIUM 143             
1 43258U 18030K   25181.77485351  .00000026  00000+0  22208-5 0  9997
2 43258  86.3956  77.4634 0001892  74.5131 285.6273 14.34217750379728
IRIDIUM 161             
1 43478U 18047C   25182.14696302  .00000062  00000+0  12353-4 0  9990
2 43478  86.4484 235.1043 0002576  95.6495 264.4999 14.43285984374508
IRIDIUM 152             
1 43479U 18047D   25181.88711024 -.00000062  00000+0 -29336-4 0  9991
2 43479  86.3963 235.0733 0002363  92.6854 267.4612 14.34217244372131
IRIDIUM 147             
1 43480U 18047E   25182.17252561  .00000009  00000+0 -40031-5 0  9998
2 43480  86.3963 234.9529 0002196  97.5392 262.6053 14.34217711372178
IRIDIUM 110             
1 43481U 18047F   25181.89979588 -.00000019  00000+0 -13804-4 0  9991
2 43481  86.3966 235.1496 0002625  99.6544 260.4949 14.34217332372121
IRIDIUM 162             
1 43482U 18047G   25181.86334156  .00000158  00000+0  40895-4 0  9997
2 43482  86.4485 235.1180 0002725  93.8848 266.2664 14.43285937374455
IRIDIUM 160             
1 43569U 18061A   25182.12470501 -.00000042  00000+0 -21940-4 0  9998
2 43569  86.3987 203.4599 0002409  94.2887 265.8584 14.34217491363056
